KENTRIDGE1
1 41167U 15077B   18093.97756706  .00000661  00000-0  36060-6 0  9991
2 41167  14.9780 225.4729 0011222  46.9667  77.1249 15.08871329126921
